ONEWEB-0597             
1 54663U 22166X   25054.05256047  .00000016  00000+0  69548-5 0  9999
2 54663  87.9355 339.4853 0001562  83.1761 276.9551 13.21826295108719
ONEWEB-0600             
1 54664U 22166Y   25053.50532547  .00000098  00000+0  20461-3 0  9990
2 54664  87.9337 339.6177 0001707  83.3480 276.7848 13.21828094108145
ONEWEB-0601             
1 54665U 22166Z   25053.34603981  .00000107  00000+0  22729-3 0  9994
2 54665  87.9357 339.6342 0001364  79.4354 280.6934 13.21829303108310
ONEWEB-0602             
1 54666U 22166AA  25053.53844809  .00000019  00000+0  14483-4 0  9993
2 54666  87.9356 339.5975 0001609  87.2907 272.8411 13.21829559108657
ONEWEB-0603             
1 54667U 22166AB  25054.14874451  .00000027  00000+0  33546-4 0  9998
2 54667  87.9333 339.4500 0001482  83.5129 276.6174 13.21827070108654
ONEWEB-0604             
1 54668U 22166AC  25054.06042632 -.00000470  00000+0 -11690-2 0  9996
2 54668  87.9351 339.4617 0001651  88.3751 271.7572 13.21824869108613
ONEWEB-0605             
1 54669U 22166AD  25053.29715338  .00000068  00000+0  13209-3 0  9991
2 54669  87.9348 339.6442 0001095  66.3467 293.7782 13.21829160108111
ONEWEB-0606             
1 54670U 22166AE  25053.54632621 -.00000051  00000+0 -15533-3 0  9990
2 54670  87.9356 339.5990 0001981  76.5164 283.6190 13.21823265108201
